#aV2008 10 13  0  0   .00000000      96 DD+AD WGS84 FIT  NGA
## 1501  86400.00000000   900.00000000 54752  .0000000000000
+   32     1  2  3  4  5  6  7  8  9 10 11 12 13 14 15 16 17
+         18 19 20 21 22 23 24 25 26 27 28 29 30 31 32  0  0
+          0  0  0  0  0  0  0  0  0  0  0  0  0  0  0  0  0
+          0  0  0  0  0  0  0  0  0  0  0  0  0  0  0  0  0
+          0  0  0  0  0  0  0  0  0  0  0  0  0  0  0  0  0
++         0  0  0  0  0  0  0  0  0  0  0  0  0  0  0  0  0
++         0  0  0  0  0  0  0  0  0  0  0  0  0  0  0  0  0
++         0  0  0  0  0  0  0  0  0  0  0  0  0  0  0  0  0
++         0  0  0  0  0  0  0  0  0  0  0  0  0  0  0  0  0
++         0  0  0  0  0  0  0  0  0  0  0  0  0  0  0  0  0
%c cc cc ccc ccc cccc cccc cccc cccc ccccc ccccc ccccc ccccc
%c cc cc ccc ccc cccc cccc cccc cccc ccccc ccccc ccccc ccccc
%f  0.0000000  0.000000000  0.00000000000  0.000000000000000
%f  0.0000000  0.000000000  0.00000000000  0.000000000000000
%i    0    0    0    0      0      0      0      0         0
%i    0    0    0    0      0      0      0      0         0
/*      NGA, ST. LOUIS,MO.                                  
/*   EPHEMERIS COMPUTED FROM  3 DAYS OF DATA                
/* CCCCCCCCCCCCCCCCCCCCCCCCCCCCCCCCCCCCCCCCCCCCCCCCCCCCCCCCC
/* CCCCCCCCCCCCCCCCCCCCCCCCCCCCCCCCCCCCCCCCCCCCCCCCCCCCCCCCC
*  2008 10 13 15 15   .00000000                                                 
P  1  14943.107168  -7175.584629 -20501.062169      4.140856                    
V  1  -3999.050934  26203.528236 -12042.127857       .025339                    
P  2 -21722.895699  13879.155219   5384.353303    180.476335                    
V  2  -7953.656448   -434.496476 -30578.934860      -.027341                    
P  3  11243.569031 -18619.472747  14715.260688    296.362815                    
V  3   2924.766437  19454.858511  22314.121993       .051699                    
P  4 -25278.959398   4719.709050  -7480.869991   -199.440429                    
V  4   7445.393787  -6246.529999 -29168.464367      -.115544                    
P  5   9933.466495  19345.626000 -15628.256116   -269.964059                    
V  5 -17613.952059  -8219.341957 -21655.154664      -.653493                    
P  6  14073.258343 -14410.670322  17498.259737    159.117014                    
V  6    413.041911  22037.894091  18013.865456      -.042402                    
P  7 -11554.850265 -11042.032264  21203.501036     21.633386                    
V  7  24533.604230 -11180.751935   7436.884002       .011282                    
P  8 -22204.360393  -2264.593387  14698.941466   -173.850484                    
V  8  17008.717776  -7500.630760  23932.288514      -.015349                    
P  9  -5356.552590  17477.564926 -19868.232402     19.604659                    
V  9 -22004.854464   9272.969933  14684.816903       .019241                    
P 10 -12984.824005   8753.211685  21353.642540     -5.956969                    
V 10 -21297.896121 -17233.300605  -5525.349134      -.004733                    
P 11   1472.928487 -19124.058265 -18420.729596     17.936905                    
V 11  20668.310600 -11342.359711  13905.999093      -.009515                    
P 12   3976.582328  18839.537030 -18265.180800   -346.604813                    
V 12 -19483.056250 -12850.473166 -17333.571885       .019399                    
P 13  -6179.775941 -21040.171983  14871.192533    274.021938                    
V 13   4490.865747 -18531.671576 -24162.946634       .010626                    
P 14  14425.261112   1827.610132 -22112.940332   -207.952530                    
V 14  -4185.859933  27960.858116   -529.787548       .048140                    
P 15  -6982.830840  24879.374791   6124.307913   -193.362249                    
V 15  -1985.972005  -8001.749331  30408.625989      -.063713                    
P 16  17491.379580  -3694.919153  19768.461478    101.678961                    
V 16  19015.371737  16099.835772 -13649.877210      -.021936                    
P 17 -14895.190145  -3285.210951 -21705.564039     39.414883                    
V 17   3711.759319 -27410.886550   1426.212467       .003086                    
P 18  19667.341020  18014.500306   2427.467899   -123.890575                    
V 18  -4042.328229    550.763912  30971.474056       .039858                    
P 19   8026.013851 -24793.035785   4578.543816     35.675296                    
V 19   1887.136087   6229.861962  31108.370091       .000156                    
P 20  -7540.428234 -19788.304107 -16168.814052    102.009345                    
V 20  17790.097344  10115.825389 -20784.254123      -.010612                    
P 21  17017.934886   8293.938158  19068.915953     46.854891                    
V 21 -21453.299654  10052.237838  14324.059341      -.015517                    
P 22  22816.536001   9595.858965  -9551.826518    210.343980                    
V 22   7700.732906  10144.324251  28040.531761      -.000968                    
P 23   -846.141500 -25736.156219   5844.105974    376.569197                    
V 23   3532.773232  -7157.892420 -30996.116536       .013369                    
P 24   1042.979438  15887.825538  21445.180637    132.857745                    
V 24 -25322.095884   8975.457947  -5185.854366       .029984                    
P 25  -4404.488769 -14848.731654  21947.189259    -67.575550                    
V 25  23778.458283 -12764.685930  -3755.352325       .361377                    
P 26 -10346.857052  21739.202621  10090.526533      2.093394                    
V 26    210.971551 -13848.650749  29168.237267       .050151                    
P 27 -14742.782120  -8673.480628  21029.874403    224.865583                    
V 27  22143.877442 -11858.144960  10882.949030       .028479                    
P 28 -22847.708700 -11188.429022  -7810.756562    -23.088632                    
V 28  -6665.424967  -8274.025230  29512.072460      -.002942                    
P 29   5367.146911  23043.290905  12206.549294    -34.539434                    
V 29  -4430.818679  14848.374675 -26281.406340       .014394                    
P 30  16776.973857  18942.215892  -8576.437554    101.840464                    
V 30 -10143.479642  -3581.747065 -28885.486542       .021904                    
P 31  25092.823124  -7602.564367  -4375.307947    -32.215959                    
V 31  -4351.710351   4523.450772 -31242.542249      -.023219                    
P 32    376.232736 -17649.584823 -19476.517413    316.318209                    
V 32  19883.359052  16154.455750 -13757.460020      -.004041                    
EOF
